CCSDS_OEM_VERS = 1.0
CREATION_DATE  = 2017-05-11T11:32:26
ORIGINATOR     = GMAT USER

META_START
OBJECT_NAME          = MOPSSat_alt_35785_km_RAAN_180_033
OBJECT_ID            = SatId
CENTER_NAME          = Earth
REF_FRAME            = EME2000
TIME_SYSTEM          = UTC
START_TIME           = 2017-01-01T00:00:00.000
USEABLE_START_TIME   = 2017-01-01T00:00:00.000
USEABLE_STOP_TIME    = 2017-01-02T00:00:00.000
STOP_TIME            = 2017-01-02T00:00:00.000
INTERPOLATION        = Lagrange
INTERPOLATION_DEGREE = 7 
META_STOP


                                                                                   

2017-01-01T00:09:10.000  -4.213009155828590e+04  -1.690612291891795e+03   2.953771026520794e-01   1.232869130426473e-01  -3.072190703808579e+00   5.373122182292117e-04
2017-01-01T00:09:20.000  -4.212884748739246e+04  -1.721333745866681e+03   3.007502436722965e-01   1.255272592354819e-01  -3.072099932686931e+00   5.373159541311619e-04
2017-01-01T00:09:30.000  -4.212758101337066e+04  -1.752054283931497e+03   3.061234204985873e-01   1.277675387143309e-01  -3.072007527922445e+00   5.373193805118207e-04
2017-01-01T00:09:40.000  -4.212629213688006e+04  -1.782773890099438e+03   3.114966300967800e-01   1.300077503134967e-01  -3.071913489563276e+00   5.373224973594869e-04
2017-01-01T00:09:50.000  -4.212498085860606e+04  -1.813492548000910e+03   3.168698693655649e-01   1.322478928393676e-01  -3.071817817659464e+00   5.373253046625567e-04
2017-01-01T00:10:00.000  -4.212364717924544e+04  -1.844210241288425e+03   3.222431352072913e-01   1.344879650999437e-01  -3.071720512261878e+00   5.373278024096066e-04
2017-01-01T00:10:10.000  -4.212229109950955e+04  -1.874926953546230e+03   3.276164245121682e-01   1.367279658982473e-01  -3.071621573422449e+00   5.373299905893732e-04
2017-01-01T00:10:20.000  -4.212091262012484e+04  -1.905642668314945e+03   3.329897341625589e-01   1.389678940341195e-01  -3.071521001194211e+00   5.373318691907860e-04
2017-01-01T00:10:30.000  -4.211951174183020e+04  -1.936357369122100e+03   3.383630610383346e-01   1.412077483064465e-01  -3.071418795631100e+00   5.373334382029433e-04
2017-01-01T00:10:40.000  -4.211808846537657e+04  -1.967071039493236e+03   3.437364020188161e-01   1.434475275139699e-01  -3.071314956787932e+00   5.373346976151171e-04
2017-01-01T00:10:50.000  -4.211664279152265e+04  -1.997783663061774e+03   3.491097540019886e-01   1.456872304632988e-01  -3.071209484720096e+00   5.373356474167602e-04
2017-01-01T00:11:00.000  -4.211517472103734e+04  -2.028495223495765e+03   3.544831138916947e-01   1.479268559635672e-01  -3.071102379483714e+00   5.373362875974971e-04
2017-01-01T00:11:10.000  -4.211368425469998e+04  -2.059205704497906e+03   3.598564785976356e-01   1.501664028264363e-01  -3.070993641135673e+00   5.373366181471268e-04
2017-01-01T00:11:20.000  -4.211217139329582e+04  -2.089915089878719e+03   3.652298450481836e-01   1.524058698714305e-01  -3.070883269733292e+00   5.373366390556173e-04
2017-01-01T00:11:30.000  -4.211063613762209e+04  -2.120623363446774e+03   3.706032101711682e-01   1.546452559179314e-01  -3.070771265334768e+00   5.373363503131068e-04
2017-01-01T00:11:40.000  -4.210907848848880e+04  -2.151330508997624e+03   3.759765708919393e-01   1.568845597843725e-01  -3.070657627999215e+00   5.373357519099084e-04
2017-01-01T00:11:50.000  -4.210749844671866e+04  -2.182036510283166e+03   3.813499241280179e-01   1.591237802860032e-01  -3.070542357786690e+00   5.373348438364830e-04
2017-01-01T00:12:00.000  -4.210589601315029e+04  -2.212741350987189e+03   3.867232667848018e-01   1.613629162331060e-01  -3.070425454758393e+00   5.373336260834711e-04
2017-01-01T00:12:10.000  -4.210427118863261e+04  -2.243445014815650e+03   3.920965957713724e-01   1.636019664375808e-01  -3.070306918976291e+00   5.373320986416780e-04
2017-01-01T00:12:20.000  -4.210262397404852e+04  -2.274147485092235e+03   3.974699079296938e-01   1.658409296834504e-01  -3.070186750504823e+00   5.373302615021317e-04
2017-01-01T00:12:30.000  -4.210095437028690e+04  -2.304848745248501e+03   4.028432001204127e-01   1.680798047626043e-01  -3.070064949408857e+00   5.373281146560201e-04
2017-01-01T00:12:40.000  -4.209926237825266e+04  -2.335548778641612e+03   4.082164691909528e-01   1.703185904615069e-01  -3.069941515754439e+00   5.373256580947114e-04
2017-01-01T00:12:50.000  -4.209754799882806e+04  -2.366247569260534e+03   4.135897120991176e-01   1.725572856126965e-01  -3.069816449605960e+00   5.373228918096947e-04
2017-01-01T00:13:00.000  -4.209581123291128e+04  -2.396945101021628e+03   4.189629257898038e-01   1.747958890434173e-01  -3.069689751028967e+00   5.373198157926363e-04
2017-01-01T00:13:10.000  -4.209405208140795e+04  -2.427641357928288e+03   4.243361072229398e-01   1.770343995872601e-01  -3.069561420089553e+00   5.373164300353707e-04
2017-01-01T00:13:20.000  -4.209227054525081e+04  -2.458336323673231e+03   4.297092533038929e-01   1.792728160551600e-01  -3.069431456855793e+00   5.373127345299071e-04
2017-01-01T00:13:30.000  -4.209046662538618e+04  -2.489029981933829e+03   4.350823609351415e-01   1.815111372569333e-01  -3.069299861396744e+00   5.373087292684361e-04
2017-01-01T00:13:40.000  -4.208864032277250e+04  -2.519722316372057e+03   4.404554270162737e-01   1.837493620012734e-01  -3.069166633782349e+00   5.373044142433145e-04
2017-01-01T00:13:50.000  -4.208679163840102e+04  -2.550413310339554e+03   4.458284483923312e-01   1.859874890742428e-01  -3.069031774084948e+00   5.372997894471451e-04
2017-01-01T00:14:00.000  -4.208492057326922e+04  -2.581102947274965e+03   4.512014219233946e-01   1.882255172682491e-01  -3.068895282377328e+00   5.372948548726849e-04
2017-01-01T00:14:10.000  -4.208302712839088e+04  -2.611791210547409e+03   4.565743444571708e-01   1.904634453706298e-01  -3.068757158733471e+00   5.372896105128753e-04
2017-01-01T00:14:20.000  -4.208111130475356e+04  -2.642478084149015e+03   4.619472129502450e-01   1.927012722141554e-01  -3.068617403225441e+00   5.372840563607258e-04
2017-01-01T00:14:30.000  -4.207917310336089e+04  -2.673163552002392e+03   4.673200243468326e-01   1.949389966265264e-01  -3.068476015926479e+00   5.372781924094290e-04
2017-01-01T00:14:40.000  -4.207721252522346e+04  -2.703847598117226e+03   4.726927756061958e-01   1.971766174417940e-01  -3.068332996910327e+00   5.372720186523387e-04
2017-01-01T00:14:50.000  -4.207522957138104e+04  -2.734530206192710e+03   4.780654636330519e-01   1.994141334713666e-01  -3.068188346252859e+00   5.372655350830133e-04
2017-01-01T00:15:00.000  -4.207322424288703e+04  -2.765211359912786e+03   4.834380853292464e-01   2.016515435255410e-01  -3.068042064030941e+00   5.372587416951936e-04
2017-01-01T00:15:10.000  -4.207119654080708e+04  -2.795891042946072e+03   4.888106375937489e-01   2.038888464134962e-01  -3.067894150322333e+00   5.372516384827893e-04
2017-01-01T00:15:20.000  -4.206914646624164e+04  -2.826569238651076e+03   4.941831172710069e-01   2.061260409217966e-01  -3.067744605207330e+00   5.372442254399789e-04
2017-01-01T00:15:30.000  -4.206707402029690e+04  -2.857245930473354e+03   4.995555212205193e-01   2.083631258433553e-01  -3.067593428766648e+00   5.372365025610874e-04
2017-01-01T00:15:40.000  -4.206497920409591e+04  -2.887921101786066e+03   5.049278462889083e-01   2.106000999658056e-01  -3.067440621082238e+00   5.372284698406314e-04
2017-01-01T00:15:50.000  -4.206286201873090e+04  -2.918594736593821e+03   5.103000894331882e-01   2.128369621228289e-01  -3.067286182233792e+00   5.372201272731442e-04
2017-01-01T00:16:00.000  -4.206072246531088e+04  -2.949266818827050e+03   5.156722475971857e-01   2.150737111426979e-01  -3.067130112302231e+00   5.372114748533479e-04
2017-01-01T00:16:10.000  -4.205856054494969e+04  -2.979937332524185e+03   5.210443177434462e-01   2.173103458615611e-01  -3.066972411368822e+00   5.372025125761130e-04
2017-01-01T00:16:20.000  -4.205637625879789e+04  -3.010606261341765e+03   5.264162967674461e-01   2.195468650877172e-01  -3.066813079517520e+00   5.371932404365572e-04
2017-01-01T00:16:30.000  -4.205416960801684e+04  -3.041273588958745e+03   5.317881815683889e-01   2.217832676311008e-01  -3.066652116833060e+00   5.371836584299707e-04
2017-01-01T00:16:40.000  -4.205194059378455e+04  -3.071939298983290e+03   5.371599690328864e-01   2.240195522964832e-01  -3.066489523401393e+00   5.371737665518319e-04
2017-01-01T00:16:50.000  -4.204968921729474e+04  -3.102603374988993e+03   5.425316560412894e-01   2.262557178861155e-01  -3.066325299309612e+00   5.371635647978275e-04
2017-01-01T00:17:00.000  -4.204741547975431e+04  -3.133265800531968e+03   5.479032394706913e-01   2.284917632009738e-01  -3.066159444645778e+00   5.371530531638189e-04
2017-01-01T00:17:10.000  -4.204511938238052e+04  -3.163926559187543e+03   5.532747162013587e-01   2.307276870434358e-01  -3.065991959498704e+00   5.371422316458354e-04
2017-01-01T00:17:20.000  -4.204280092640122e+04  -3.194585634567536e+03   5.586460831197455e-01   2.329634882185402e-01  -3.065822843957970e+00   5.371311002400739e-04
2017-01-01T00:17:30.000  -4.204046011305031e+04  -3.225243010356237e+03   5.640173371248102e-01   2.351991655366104e-01  -3.065652098113604e+00   5.371196589428756e-04
2017-01-01T00:17:40.000  -4.203809694357567e+04  -3.255898670217329e+03   5.693884751117044e-01   2.374347178064678e-01  -3.065479722056653e+00   5.371079077507660e-04
2017-01-01T00:17:50.000  -4.203571141920584e+04  -3.286552598197663e+03   5.747594940425347e-01   2.396701438648762e-01  -3.065305715876743e+00   5.370958466602778e-04
2017-01-01T00:18:00.000  -4.203330354118971e+04  -3.317204778237945e+03   5.801303908606140e-01   2.419054425408587e-01  -3.065130079664994e+00   5.370834756681601e-04
2017-01-01T00:18:10.000  -4.203087331078190e+04  -3.347855194357700e+03   5.855011625228729e-01   2.441406126691866e-01  -3.064952813512942e+00   5.370707947713035e-04
